{"type": "FeatureCollection", "features": [ {"type": "Feature", "properties": {"norad_id": 66929, "name": "STARLINK-36169", "group": "last-30-days", "lat": 47.02000146153907, "lon": 112.26558346973519, "alt_km": 383.58614877258697, "timestamp": "2025-12-25T16:53:13.374001+00:00", "meta": {"OBJECT_NAME": "STARLINK-36169", "OBJECT_ID": "2025-286E", "EPOCH": "2025-12-25T06:00:04.000320", "MEAN_MOTION": 15.60924189, "ECCENTRICITY": 0.0001316, "INCLINATION": 53.16, "RA_OF_ASC_NODE": 348.036, "ARG_OF_PERICENTER": 77.4776, "MEAN_ANOMALY": 7.7266, "EPHEMERIS_TYPE": 0, "CLASSIFICATION_TYPE": "U", "NORAD_CAT_ID": 66929, "ELEMENT_SET_NO": 999, "REV_AT_EPOCH": 400, "BSTAR": -0.026744895, "MEAN_MOTION_DOT": -0.02003255, "MEAN_MOTION_DDOT": 0}, "tle": {"line1": "1 66929U 25286E   25359.25004630 -.02003255  00000+0 -26745-1 0  9992", "line2": "2 66929  53.1600 348.0360 0001316  77.4776   7.7266 15.60924189  4009"}}, "geometry": {"type": "Point", "coordinates": [112.26558346973519, 47.02000146153907]}}, {"type": "Feature", "properties": {"norad_id": 66930, "name": "STARLINK-36206", "group": "last-30-days", "lat": 46.08053509303095, "lon": 114.69953183159352, "alt_km": 383.7514745745448, "timestamp": "2025-12-25T16:53:13.374011+00:00", "meta": {"OBJECT_NAME": "STARLINK-36206", "OBJECT_ID": "2025-286F", "EPOCH": "2025-12-25T06:00:04.000320", "MEAN_MOTION": 15.60928568, "ECCENTRICITY": 0.00013919, "INCLINATION": 53.1601, "RA_OF_ASC_NODE": 348.0314, "ARG_OF_PERICENTER": 71.5809, "MEAN_ANOMALY": 15.5385, "EPHEMERIS_TYPE": 0, "CLASSIFICATION_TYPE": "U", "NORAD_CAT_ID": 66930, "ELEMENT_SET_NO": 999, "REV_AT_EPOCH": 400, "BSTAR": -0.026825737, "MEAN_MOTION_DOT": -0.02008914, "MEAN_MOTION_DDOT": 0}, "tle": {"line1": "1 66930U 25286F   25359.25004630 -.02008914  00000+0 -26826-1 0  9991", "line2": "2 66930  53.1601 348.0314 0001391  71.5809  15.5385 15.60928568  4000"}}, "geometry": {"type": "Point", "coordinates": [114.69953183159352, 46.08053509303095]}}, {"type": "Feature", "properties": {"norad_id": 66931, "name": "STARLINK-36130", "group": "last-30-days", "lat": 45.09255641316693, "lon": 117.04691520118136, "alt_km": 383.92302790770555, "timestamp": "2025-12-25T16:53:13.374025+00:00", "meta": {"OBJECT_NAME": "STARLINK-36130", "OBJECT_ID": "2025-286G", "EPOCH": "2025-12-25T06:00:04.000320", "MEAN_MOTION": 15.60925933, "ECCENTRICITY": 0.00013229, "INCLINATION": 53.16, "RA_OF_ASC_NODE": 348.0281, "ARG_OF_PERICENTER": 75.1601, "MEAN_ANOMALY": 13.8776, "EPHEMERIS_TYPE": 0, "CLASSIFICATION_TYPE": "U", "NORAD_CAT_ID": 66931, "ELEMENT_SET_NO": 999, "REV_AT_EPOCH": 400, "BSTAR": -0.02678354, "MEAN_MOTION_DOT": -0.02005915, "MEAN_MOTION_DDOT": 0}, "tle": {"line1": "1 66931U 25286G   25359.25004630 -.02005915  00000+0 -26784-1 0  9993", "line2": "2 66931  53.1600 348.0281 0001322  75.1601  13.8776 15.60925933  4005"}}, "geometry": {"type": "Point", "coordinates": [117.04691520118136, 45.09255641316693]}}, {"type": "Feature", "properties": {"norad_id": 66932, "name": "STARLINK-36177", "group": "last-30-days", "lat": 44.05692394284299, "lon": 119.31302790526802, "alt_km": 384.0939148168709, "timestamp": "2025-12-25T16:53:13.374035+00:00", "meta": {"OBJECT_NAME": "STARLINK-36177", "OBJECT_ID": "2025-286H", "EPOCH": "2025-12-25T06:00:04.000320", "MEAN_MOTION": 15.60931729, "ECCENTRICITY": 0.00013558, "INCLINATION": 53.1599, "RA_OF_ASC_NODE": 348.023, "ARG_OF_PERICENTER": 73.9076, "MEAN_ANOMALY": 17.0435, "EPHEMERIS_TYPE": 0, "CLASSIFICATION_TYPE": "U", "NORAD_CAT_ID": 66932, "ELEMENT_SET_NO": 999, "REV_AT_EPOCH": 400, "BSTAR": -0.026874243, "MEAN_MOTION_DOT": -0.02012284, "MEAN_MOTION_DDOT": 0}, "tle": {"line1": "1 66932U 25286H   25359.25004630 -.02012284  00000+0 -26874-1 0  9991", "line2": "2 66932  53.1599 348.0230 0001355  73.9076  17.0435 15.60931729  4003"}}, "geometry": {"type": "Point", "coordinates": [119.31302790526802, 44.05692394284299]}}, {"type": "Feature", "properties": {"norad_id": 66933, "name": "STARLINK-36157", "group": "last-30-days", "lat": 42.9784873127491, "lon": 121.49966041903134, "alt_km": 384.1949337224787, "timestamp": "2025-12-25T16:53:13.374047+00:00", "meta": {"OBJECT_NAME": "STARLINK-36157", "OBJECT_ID": "2025-286J", "EPOCH": "2025-12-25T06:00:04.000320", "MEAN_MOTION": 15.60929571, "ECCENTRICITY": 0.00014828, "INCLINATION": 53.1597, "RA_OF_ASC_NODE": 348.0195, "ARG_OF_PERICENTER": 76.2643, "MEAN_ANOMALY": 16.6049, "EPHEMERIS_TYPE": 0, "CLASSIFICATION_TYPE": "U", "NORAD_CAT_ID": 66933, "ELEMENT_SET_NO": 999, "REV_AT_EPOCH": 400, "BSTAR": -0.026857385, "MEAN_MOTION_DOT": -0.02011127, "MEAN_MOTION_DDOT": 0}, "tle": {"line1": "1 66933U 25286J   25359.25004630 -.02011127  00000+0 -26857-1 0  9998", "line2": "2 66933  53.1597 348.0195 0001482  76.2643  16.6049 15.60929571  4007"}}, "geometry": {"type": "Point", "coordinates": [121.49966041903134, 42.9784873127491]}}, {"type": "Feature", "properties": {"norad_id": 66934, "name": "STARLINK-36153", "group": "last-30-days", "lat": 41.859533554817126, "lon": 123.60943701551005, "alt_km": 384.47075317309736, "timestamp": "2025-12-25T16:53:13.374058+00:00", "meta": {"OBJECT_NAME": "STARLINK-36153", "OBJECT_ID": "2025-286K", "EPOCH": "2025-12-25T06:00:04.000320", "MEAN_MOTION": 15.60924144, "ECCENTRICITY": 0.00012901, "INCLINATION": 53.1594, "RA_OF_ASC_NODE": 348.0158, "ARG_OF_PERICENTER": 77.3555, "MEAN_ANOMALY": 17.435, "EPHEMERIS_TYPE": 0, "CLASSIFICATION_TYPE": "U", "NORAD_CAT_ID": 66934, "ELEMENT_SET_NO": 999, "REV_AT_EPOCH": 400, "BSTAR": -0.026761642, "MEAN_MOTION_DOT": -0.02004332, "MEAN_MOTION_DDOT": 0}, "tle": {"line1": "1 66934U 25286K   25359.25004630 -.02004332  00000+0 -26762-1 0  9994", "line2": "2 66934  53.1594 348.0158 0001290  77.3555  17.4350 15.60924144  4000"}}, "geometry": {"type": "Point", "coordinates": [123.60943701551005, 41.859533554817126]}}, {"type": "Feature", "properties": {"norad_id": 66935, "name": "STARLINK-36127", "group": "last-30-days", "lat": 40.70302311729796, "lon": 125.64523960394125, "alt_km": 384.7264909638943, "timestamp": "2025-12-25T16:53:13.374067+00:00", "meta": {"OBJECT_NAME": "STARLINK-36127", "OBJECT_ID": "2025-286L", "EPOCH": "2025-12-25T06:00:04.000320", "MEAN_MOTION": 15.60930677, "ECCENTRICITY": 0.00012916, "INCLINATION": 53.1595, "RA_OF_ASC_NODE": 348.011, "ARG_OF_PERICENTER": 71.2399, "MEAN_ANOMALY": 25.4629, "EPHEMERIS_TYPE": 0, "CLASSIFICATION_TYPE": "U", "NORAD_CAT_ID": 66935, "ELEMENT_SET_NO": 999, "REV_AT_EPOCH": 400, "BSTAR": -0.026859767, "MEAN_MOTION_DOT": -0.02011216, "MEAN_MOTION_DDOT": 0}, "tle": {"line1": "1 66935U 25286L   25359.25004630 -.02011216  00000+0 -26860-1 0  9993", "line2": "2 66935  53.1595 348.0110 0001291  71.2399  25.4629 15.60930677  4006"}}, "geometry": {"type": "Point", "coordinates": [125.64523960394125, 40.70302311729796]}}, {"type": "Feature", "properties": {"norad_id": 66936, "name": "STARLINK-36160", "group": "last-30-days", "lat": 39.51217000000772, "lon": 127.61104114390477, "alt_km": 384.85253577865205, "timestamp": "2025-12-25T16:53:13.374082+00:00", "meta": {"OBJECT_NAME": "STARLINK-36160", "OBJECT_ID": "2025-286M", "EPOCH": "2025-12-25T06:00:04.000320", "MEAN_MOTION": 15.60928559, "ECCENTRICITY": 0.00014035, "INCLINATION": 53.1595, "RA_OF_ASC_NODE": 348.0076, "ARG_OF_PERICENTER": 74.8947, "MEAN_ANOMALY": 23.7266, "EPHEMERIS_TYPE": 0, "CLASSIFICATION_TYPE": "U", "NORAD_CAT_ID": 66936, "ELEMENT_SET_NO": 999, "REV_AT_EPOCH": 400, "BSTAR": -0.026839907, "MEAN_MOTION_DOT": -0.02009852, "MEAN_MOTION_DDOT": 0}, "tle": {"line1": "1 66936U 25286M   25359.25004630 -.02009852  00000+0 -26840-1 0  9995", "line2": "2 66936  53.1595 348.0076 0001403  74.8947  23.7266 15.60928559  4005"}}, "geometry": {"type": "Point", "coordinates": [127.61104114390477, 39.51217000000772]}}, {"type": "Feature", "properties": {"norad_id": 66937, "name": "STARLINK-36165", "group": "last-30-days", "lat": 38.289933557337235, "lon": 129.50768492969644, "alt_km": 385.0859879247173, "timestamp": "2025-12-25T16:53:13.374095+00:00", "meta": {"OBJECT_NAME": "STARLINK-36165", "OBJECT_ID": "2025-286N", "EPOCH": "2025-12-25T06:00:04.000320", "MEAN_MOTION": 15.60929031, "ECCENTRICITY": 0.00013155, "INCLINATION": 53.1596, "RA_OF_ASC_NODE": 348.0032, "ARG_OF_PERICENTER": 77.4839, "MEAN_ANOMALY": 23.0552, "EPHEMERIS_TYPE": 0, "CLASSIFICATION_TYPE": "U", "NORAD_CAT_ID": 66937, "ELEMENT_SET_NO": 999, "REV_AT_EPOCH": 400, "BSTAR": -0.026862683, "MEAN_MOTION_DOT": -0.02011312, "MEAN_MOTION_DDOT": 0}, "tle": {"line1": "1 66937U 25286N   25359.25004630 -.02011312  00000+0 -26863-1 0  9995", "line2": "2 66937  53.1596 348.0032 0001315  77.4839  23.0552 15.60929031  4007"}}, "geometry": {"type": "Point", "coordinates": [129.50768492969644, 38.289933557337235]}}, {"type": "Feature", "properties": {"norad_id": 66938, "name": "STARLINK-36155", "group": "last-30-days", "lat": 37.036366816182536, "lon": 131.34293990127549, "alt_km": 385.3409632325547, "timestamp": "2025-12-25T16:53:13.374105+00:00", "meta": {"OBJECT_NAME": "STARLINK-36155", "OBJECT_ID": "2025-286P", "EPOCH": "2025-12-25T06:00:04.000320", "MEAN_MOTION": 15.60928124, "ECCENTRICITY": 0.00013897, "INCLINATION": 53.1598, "RA_OF_ASC_NODE": 347.9986, "ARG_OF_PERICENTER": 70.7471, "MEAN_ANOMALY": 31.7078, "EPHEMERIS_TYPE": 0, "CLASSIFICATION_TYPE": "U", "NORAD_CAT_ID": 66938, "ELEMENT_SET_NO": 999, "REV_AT_EPOCH": 400, "BSTAR": -0.026817728, "MEAN_MOTION_DOT": -0.02008357, "MEAN_MOTION_DDOT": 0}, "tle": {"line1": "1 66938U 25286P   25359.25004630 -.02008357  00000+0 -26818-1 0  9991", "line2": "2 66938  53.1598 347.9986 0001389  70.7471  31.7078 15.60928124  4006"}}, "geometry": {"type": "Point", "coordinates": [131.34293990127549, 37.036366816182536]}}]}